ONEWEB-0410             
1 51622U 22012A   23274.84464748 -.00000033  00000+0 -11783-3 0  9996
2 51622  87.9187 202.4872 0001399 116.2913 243.8363 13.17647642 83414
ONEWEB-0411             
1 51623U 22012B   23274.87815969  .00000595  00000+0  16678-2 0  9993
2 51623  87.8865 232.7035 0001784  71.6800 288.4521 13.10374973 79728
ONEWEB-0415             
1 51624U 22012C   23274.87490696  .00000672  00000+0  18878-2 0  9990
2 51624  87.8869 232.7313 0001768  70.9720 289.1598 13.10376964 79721
ONEWEB-0416             
1 51625U 22012D   23274.88628456  .00000485  00000+0  13536-2 0  9997
2 51625  87.8863 232.7159 0002039  78.4458 281.6898 13.10371688 79769
ONEWEB-0422             
1 51626U 22012E   23274.85311504  .00000051  00000+0  98200-4 0  9990
2 51626  87.9184 202.4809 0002772  72.7836 287.3599 13.17650408 83521
ONEWEB-0423             
1 51627U 22012F   23274.84675765 -.00000236  00000+0 -64040-3 0  9993
2 51627  87.9246 202.4403 0001963  76.1073 284.0277 13.17650433 83416
ONEWEB-0425             
1 51628U 22012G   23274.89602978  .00000122  00000+0  31332-3 0  9995
2 51628  87.8860 232.7062 0002062  95.0397 265.0965 13.10369880 79767
ONEWEB-0428             
1 51629U 22012H   23274.87653679  .00000594  00000+0  16649-2 0  9994
2 51629  87.8865 232.7215 0002238  72.9107 287.2265 13.10374882 79724
